IRIDIUM 26              
1 24903U 97043A   25111.50919806  .00000708  00000+0  23181-3 0  9991
2 24903  86.3939 134.4362 0002120  90.7776 269.3665 14.37089903449077
IRIDIUM 22              
1 24907U 97043E   25111.53170051  .00000596  00000+0  19893-3 0  9999
2 24907  86.3950 137.9153 0002304  92.4023 267.7437 14.35910910448637
DUMMY MASS 1            
1 24925U 97048A   25111.55229719  .00000694  00000+0  74520-4 0  9990
2 24925  86.3376 161.5100 0006541   8.9759 351.1581 14.86934554496951
DUMMY MASS 2            
1 24926U 97048B   25111.50502546  .00000693  00000+0  74891-4 0  9998
2 24926  86.3380 163.1270 0007768  17.6394 342.5098 14.86687348496725
IRIDIUM 29              
1 24944U 97051A   25111.22626107  .00000657  00000+0  21770-3 0  9998
2 24944  86.4002 167.7782 0002494  94.3904 265.7578 14.36413601445317
IRIDIUM 33              
1 24946U 97051C   25111.21559385  .00000416  00000+0  13984-3 0  9993
2 24946  86.3916 167.0385 0005572 261.2676  98.7889 14.34854838444581
IRIDIUM 28              
1 24948U 97051E   25111.51503159  .00000608  00000+0  19710-3 0  9992
2 24948  86.4004 165.2080 0001850  93.8089 266.3320 14.37340809445772
IRIDIUM 36              
1 24967U 97056C   25111.20865216  .00000704  00000+0  22841-3 0  9995
2 24967  86.4031 196.9069 0002165 101.4974 258.6466 14.37556682444031
